<?xml version="1.0" encoding="UTF-8"?>
<ndm xmlns:xsi="http://www.w3.org/2001/XMLSchema-instance" xsi:noNamespaceSchemaLocation="https://sanaregistry.org/r/ndmxml_unqualified/ndmxml-2.0.0-master-2.0.xsd">
<omm id="CCSDS_OMM_VERS" version="2.0">
<header><CREATION_DATE/><ORIGINATOR/></header><body><segment><metadata><OBJECT_NAME>ONEWEB-0446</OBJECT_NAME><OBJECT_ID>2022-012U</OBJECT_ID><CENTER_NAME>EARTH</CENTER_NAME><REF_FRAME>TEME</REF_FRAME><TIME_SYSTEM>UTC</TIME_SYSTEM><MEAN_ELEMENT_THEORY>SGP4</MEAN_ELEMENT_THEORY></metadata><data><meanElements><EPOCH>2024-06-13T12:40:05.018304</EPOCH><MEAN_MOTION>13.10370359</MEAN_MOTION><ECCENTRICITY>.000179</ECCENTRICITY><INCLINATION>87.8937</INCLINATION><RA_OF_ASC_NODE>182.1457</RA_OF_ASC_NODE><ARG_OF_PERICENTER>84.4036</ARG_OF_PERICENTER><MEAN_ANOMALY>275.7295</MEAN_ANOMALY></meanElements><tleParameters><EPHEMERIS_TYPE>0</EPHEMERIS_TYPE><CLASSIFICATION_TYPE>U</CLASSIFICATION_TYPE><NORAD_CAT_ID>51640</NORAD_CAT_ID><ELEMENT_SET_NO>999</ELEMENT_SET_NO><REV_AT_EPOCH>11454</REV_AT_EPOCH><BSTAR>-.13518E-2</BSTAR><MEAN_MOTION_DOT>-.459E-5</MEAN_MOTION_DOT><MEAN_MOTION_DDOT>0</MEAN_MOTION_DDOT></tleParameters></data></segment></body></omm>
<omm id="CCSDS_OMM_VERS" version="2.0">
<header><CREATION_DATE/><ORIGINATOR/></header><body><segment><metadata><OBJECT_NAME>ONEWEB-0448</OBJECT_NAME><OBJECT_ID>2022-012V</OBJECT_ID><CENTER_NAME>EARTH</CENTER_NAME><REF_FRAME>TEME</REF_FRAME><TIME_SYSTEM>UTC</TIME_SYSTEM><MEAN_ELEMENT_THEORY>SGP4</MEAN_ELEMENT_THEORY></metadata><data><meanElements><EPOCH>2024-06-13T10:57:18.681408</EPOCH><MEAN_MOTION>13.10373274</MEAN_MOTION><ECCENTRICITY>.0002176</ECCENTRICITY><INCLINATION>87.8938</INCLINATION><RA_OF_ASC_NODE>182.1605</RA_OF_ASC_NODE><ARG_OF_PERICENTER>92.9367</ARG_OF_PERICENTER><MEAN_ANOMALY>267.2010</MEAN_ANOMALY></meanElements><tleParameters><EPHEMERIS_TYPE>0</EPHEMERIS_TYPE><CLASSIFICATION_TYPE>U</CLASSIFICATION_TYPE><NORAD_CAT_ID>51641</NORAD_CAT_ID><ELEMENT_SET_NO>999</ELEMENT_SET_NO><REV_AT_EPOCH>11449</REV_AT_EPOCH><BSTAR>-.18266E-2</BSTAR><MEAN_MOTION_DOT>-.625E-5</MEAN_MOTION_DOT><MEAN_MOTION_DDOT>0</MEAN_MOTION_DDOT></tleParameters></data></segment></body></omm>
<omm id="CCSDS_OMM_VERS" version="2.0">
<header><CREATION_DATE/><ORIGINATOR/></header><body><segment><metadata><OBJECT_NAME>ONEWEB-0449</OBJECT_NAME><OBJECT_ID>2022-012W</OBJECT_ID><CENTER_NAME>EARTH</CENTER_NAME><REF_FRAME>TEME</REF_FRAME><TIME_SYSTEM>UTC</TIME_SYSTEM><MEAN_ELEMENT_THEORY>SGP4</MEAN_ELEMENT_THEORY></metadata><data><meanElements><EPOCH>2024-06-13T11:04:30.980352</EPOCH><MEAN_MOTION>13.10351311</MEAN_MOTION><ECCENTRICITY>.0002071</ECCENTRICITY><INCLINATION>87.8945</INCLINATION><RA_OF_ASC_NODE>182.1568</RA_OF_ASC_NODE><ARG_OF_PERICENTER>100.1136</ARG_OF_PERICENTER><MEAN_ANOMALY>260.0225</MEAN_ANOMALY></meanElements><tleParameters><EPHEMERIS_TYPE>0</EPHEMERIS_TYPE><CLASSIFICATION_TYPE>U</CLASSIFICATION_TYPE><NORAD_CAT_ID>51642</NORAD_CAT_ID><ELEMENT_SET_NO>999</ELEMENT_SET_NO><REV_AT_EPOCH>11451</REV_AT_EPOCH><BSTAR>-.86453E-2</BSTAR><MEAN_MOTION_DOT>-.3003E-4</MEAN_MOTION_DOT><MEAN_MOTION_DDOT>0</MEAN_MOTION_DDOT></tleParameters></data></segment></body></omm>
<omm id="CCSDS_OMM_VERS" version="2.0">
<header><CREATION_DATE/><ORIGINATOR/></header><body><segment><metadata><OBJECT_NAME>ONEWEB-0451</OBJECT_NAME><OBJECT_ID>2022-012X</OBJECT_ID><CENTER_NAME>EARTH</CENTER_NAME><REF_FRAME>TEME</REF_FRAME><TIME_SYSTEM>UTC</TIME_SYSTEM><MEAN_ELEMENT_THEORY>SGP4</MEAN_ELEMENT_THEORY></metadata><data><meanElements><EPOCH>2024-06-13T12:18:47.273760</EPOCH><MEAN_MOTION>13.17647500</MEAN_MOTION><ECCENTRICITY>.0002144</ECCENTRICITY><INCLINATION>87.9158</INCLINATION><RA_OF_ASC_NODE>151.9013</RA_OF_ASC_NODE><ARG_OF_PERICENTER>91.9836</ARG_OF_PERICENTER><MEAN_ANOMALY>268.1541</MEAN_ANOMALY></meanElements><tleParameters><EPHEMERIS_TYPE>0</EPHEMERIS_TYPE><CLASSIFICATION_TYPE>U</CLASSIFICATION_TYPE><NORAD_CAT_ID>51643</NORAD_CAT_ID><ELEMENT_SET_NO>999</ELEMENT_SET_NO><REV_AT_EPOCH>11834</REV_AT_EPOCH><BSTAR>.67941E-4</BSTAR><MEAN_MOTION_DOT>.39E-6</MEAN_MOTION_DOT><MEAN_MOTION_DDOT>0</MEAN_MOTION_DDOT></tleParameters></data></segment></body></omm>
<omm id="CCSDS_OMM_VERS" version="2.0">
<header><CREATION_DATE/><ORIGINATOR/></header><body><segment><metadata><OBJECT_NAME>ONEWEB-0452</OBJECT_NAME><OBJECT_ID>2022-012Y</OBJECT_ID><CENTER_NAME>EARTH</CENTER_NAME><REF_FRAME>TEME</REF_FRAME><TIME_SYSTEM>UTC</TIME_SYSTEM><MEAN_ELEMENT_THEORY>SGP4</MEAN_ELEMENT_THEORY></metadata><data><meanElements><EPOCH>2024-06-13T12:16:30.920736</EPOCH><MEAN_MOTION>13.17647338</MEAN_MOTION><ECCENTRICITY>.0002043</ECCENTRICITY><INCLINATION>87.9165</INCLINATION><RA_OF_ASC_NODE>151.9413</RA_OF_ASC_NODE><ARG_OF_PERICENTER>98.0433</ARG_OF_PERICENTER><MEAN_ANOMALY>262.0930</MEAN_ANOMALY></meanElements><tleParameters><EPHEMERIS_TYPE>0</EPHEMERIS_TYPE><CLASSIFICATION_TYPE>U</CLASSIFICATION_TYPE><NORAD_CAT_ID>51644</NORAD_CAT_ID><ELEMENT_SET_NO>999</ELEMENT_SET_NO><REV_AT_EPOCH>11835</REV_AT_EPOCH><BSTAR>-.2927E-4</BSTAR><MEAN_MOTION_DOT>.2E-7</MEAN_MOTION_DOT><MEAN_MOTION_DDOT>0</MEAN_MOTION_DDOT></tleParameters></data></segment></body></omm>
<omm id="CCSDS_OMM_VERS" version="2.0">
<header><CREATION_DATE/><ORIGINATOR/></header><body><segment><metadata><OBJECT_NAME>ONEWEB-0456</OBJECT_NAME><OBJECT_ID>2022-012AA</OBJECT_ID><CENTER_NAME>EARTH</CENTER_NAME><REF_FRAME>TEME</REF_FRAME><TIME_SYSTEM>UTC</TIME_SYSTEM><MEAN_ELEMENT_THEORY>SGP4</MEAN_ELEMENT_THEORY></metadata><data><meanElements><EPOCH>2024-06-13T13:08:46.651488</EPOCH><MEAN_MOTION>13.10375964</MEAN_MOTION><ECCENTRICITY>.0002231</ECCENTRICITY><INCLINATION>87.8933</INCLINATION><RA_OF_ASC_NODE>182.1099</RA_OF_ASC_NODE><ARG_OF_PERICENTER>83.3606</ARG_OF_PERICENTER><MEAN_ANOMALY>276.7776</MEAN_ANOMALY></meanElements><tleParameters><EPHEMERIS_TYPE>0</EPHEMERIS_TYPE><CLASSIFICATION_TYPE>U</CLASSIFICATION_TYPE><NORAD_CAT_ID>51646</NORAD_CAT_ID><ELEMENT_SET_NO>999</ELEMENT_SET_NO><REV_AT_EPOCH>11455</REV_AT_EPOCH><BSTAR>-.11367E-2</BSTAR><MEAN_MOTION_DOT>-.384E-5</MEAN_MOTION_DOT><MEAN_MOTION_DDOT>0</MEAN_MOTION_DDOT></tleParameters></data></segment></body></omm>
<omm id="CCSDS_OMM_VERS" version="2.0">
<header><CREATION_DATE/><ORIGINATOR/></header><body><segment><metadata><OBJECT_NAME>ONEWEB-0457</OBJECT_NAME><OBJECT_ID>2022-012AB</OBJECT_ID><CENTER_NAME>EARTH</CENTER_NAME><REF_FRAME>TEME</REF_FRAME><TIME_SYSTEM>UTC</TIME_SYSTEM><MEAN_ELEMENT_THEORY>SGP4</MEAN_ELEMENT_THEORY></metadata><data><meanElements><EPOCH>2024-06-13T12:35:19.271904</EPOCH><MEAN_MOTION>13.10377905</MEAN_MOTION><ECCENTRICITY>.0001672</ECCENTRICITY><INCLINATION>87.8936</INCLINATION><RA_OF_ASC_NODE>182.1364</RA_OF_ASC_NODE><ARG_OF_PERICENTER>92.8302</ARG_OF_PERICENTER><MEAN_ANOMALY>267.3016</MEAN_ANOMALY></meanElements><tleParameters><EPHEMERIS_TYPE>0</EPHEMERIS_TYPE><CLASSIFICATION_TYPE>U</CLASSIFICATION_TYPE><NORAD_CAT_ID>51647</NORAD_CAT_ID><ELEMENT_SET_NO>999</ELEMENT_SET_NO><REV_AT_EPOCH>11456</REV_AT_EPOCH><BSTAR>-.12895E-2</BSTAR><MEAN_MOTION_DOT>-.438E-5</MEAN_MOTION_DOT><MEAN_MOTION_DDOT>0</MEAN_MOTION_DDOT></tleParameters></data></segment></body></omm>
<omm id="CCSDS_OMM_VERS" version="2.0">
<header><CREATION_DATE/><ORIGINATOR/></header><body><segment><metadata><OBJECT_NAME>ONEWEB-0458</OBJECT_NAME><OBJECT_ID>2022-012AC</OBJECT_ID><CENTER_NAME>EARTH</CENTER_NAME><REF_FRAME>TEME</REF_FRAME><TIME_SYSTEM>UTC</TIME_SYSTEM><MEAN_ELEMENT_THEORY>SGP4</MEAN_ELEMENT_THEORY></metadata><data><meanElements><EPOCH>2024-06-13T13:06:23.135040</EPOCH><MEAN_MOTION>13.10375592</MEAN_MOTION><ECCENTRICITY>.0002127</ECCENTRICITY><INCLINATION>87.8944</INCLINATION><RA_OF_ASC_NODE>182.1477</RA_OF_ASC_NODE><ARG_OF_PERICENTER>95.4628</ARG_OF_PERICENTER><MEAN_ANOMALY>264.6742</MEAN_ANOMALY></meanElements><tleParameters><EPHEMERIS_TYPE>0</EPHEMERIS_TYPE><CLASSIFICATION_TYPE>U</CLASSIFICATION_TYPE><NORAD_CAT_ID>51648</NORAD_CAT_ID><ELEMENT_SET_NO>999</ELEMENT_SET_NO><REV_AT_EPOCH>11452</REV_AT_EPOCH><BSTAR>-.13421E-2</BSTAR><MEAN_MOTION_DOT>-.456E-5</MEAN_MOTION_DOT><MEAN_MOTION_DDOT>0</MEAN_MOTION_DDOT></tleParameters></data></segment></body></omm>

</ndm>
