ONEWEB-0446             
1 51640U 22012U   24165.52783586 -.00000459  00000+0 -13518-2 0  9994
2 51640  87.8937 182.1457 0001790  84.4036 275.7295 13.10370359114544
ONEWEB-0448             
1 51641U 22012V   24165.45646622 -.00000625  00000+0 -18266-2 0  9996
2 51641  87.8938 182.1605 0002176  92.9367 267.2010 13.10373274114495
ONEWEB-0449             
1 51642U 22012W   24165.46146968 -.00003003  00000+0 -86453-2 0  9992
2 51642  87.8945 182.1568 0002071 100.1136 260.0225 13.10351311114512
ONEWEB-0451             
1 51643U 22012X   24165.51304715  .00000039  00000+0  67941-4 0  9992
2 51643  87.9158 151.9013 0002144  91.9836 268.1541 13.17647500118344
ONEWEB-0452             
1 51644U 22012Y   24165.51146899  .00000002  00000+0 -29270-4 0  9994
2 51644  87.9165 151.9413 0002043  98.0433 262.0930 13.17647338118351
ONEWEB-0456             
1 51646U 22012AA  24165.54776217 -.00000384  00000+0 -11367-2 0  9992
2 51646  87.8933 182.1099 0002231  83.3606 276.7776 13.10375964114553
ONEWEB-0457             
1 51647U 22012AB  24165.52452861 -.00000438  00000+0 -12895-2 0  9994
2 51647  87.8936 182.1364 0001672  92.8302 267.3016 13.10377905114569
ONEWEB-0458             
1 51648U 22012AC  24165.54610110 -.00000456  00000+0 -13421-2 0  9996
2 51648  87.8944 182.1477 0002127  95.4628 264.6742 13.10375592114522
